STARLINK-35271          
1 65812U 25218X   25289.16670139  .00003478  00000+0  65710-4 0  9993
2 65812  97.6041 149.5867 0001809  99.0929 303.4131 15.49188510  4413
STARLINK-35215          
1 65813U 25218Y   25289.16670139 -.00027350  00000+0 -50261-3 0  9995
2 65813  97.6041 149.5874 0001704  98.5279 305.9115 15.49197346  4414
STARLINK-35157          
1 65814U 25218Z   25289.16670139 -.00039371  00000+0 -72517-3 0  9990
2 65814  97.6040 149.5883 0001675  99.9667 306.3877 15.49206818  4412
FENGYUN 3H              
1 65815U 25219A   25289.15674603  .00000138  00000+0  85555-4 0  9995
2 65815  98.6481 230.0266 0001595  75.7239 284.4115 14.19880141  2751
CZ-4C R/B               
1 65816U 25219B   25289.14205375  .00000910  00000+0  21325-3 0  9993
2 65816  98.6350 230.9995 0120965 343.4830  16.2438 14.52835350  2815
HULIANWANG DIGUI-82     
1 65817U 25220A   25286.44945642  .00000021  00000+0  59484-5 0  9996
2 65817  86.4702 127.6074 0011198 114.8973 245.3347 13.61997562  2184
HULIANWANG DIGUI-83     
1 65818U 25220B   25280.88253443  .00000053  00000+0  42001-4 0  9991
2 65818  86.4965 129.6642 0009119 185.6212 174.4847 13.68863866  1420
HULIANWANG DIGUI-84     
1 65819U 25220C   25287.69206525  .00000041  00000+0  31318-4 0  9993
2 65819  86.4706 127.2004 0010020 186.9367 173.1652 13.63984563  2354
HULIANWANG DIGUI-85     
1 65820U 25220D   25281.46522918  .00000048  00000+0  37114-4 0  9998
2 65820  86.4932 129.4418 0008247 165.7195 194.4199 13.68595682  1505
HULIANWANG DIGUI-86     
1 65821U 25220E   25287.83312456  .00000044  00000+0  34113-4 0  9992
2 65821  86.5147 127.2017 0010317 135.8999 224.2982 13.63996082  2379
CZ-6A R/B               
1 65822U 25220F   25288.94969896  .00000048  00000+0  21477-4 0  9995
2 65822  86.5055 126.4505 0105661  58.6284 302.5175 13.94170831  2573
STARLINK-35392          
1 65823U 25221A   25288.91672454 -.01647227  00000+0 -19576-1 0  9998
2 65823  53.1594  44.0042 0000898  56.8207 282.8002 15.63767014  3904
STARLINK-35281          
1 65824U 25221B   25289.16670139 -.01602250  00000+0 -19678-1 0  9995
2 65824  53.1593  42.7772 0000739  75.8567 233.3407 15.62847790  3946
STARLINK-35397          
1 65825U 25221C   25289.16670139 -.01603542  00000+0 -19695-1 0  9990
2 65825  53.1596  42.7698 0000811  70.0962 242.9340 15.62848953  3948
STARLINK-35381          
1 65826U 25221D   25289.16670139 -.01598433  00000+0 -19627-1 0  9998
2 65826  53.1593  42.7723 0000823  70.2589 240.8570 15.62844480  3948
STARLINK-35393          
1 65827U 25221E   25289.16670139 -.01599377  00000+0 -19639-1 0  9990
2 65827  53.1596  42.7324 0000830  65.5871 264.6957 15.62845786  3941
STARLINK-35396          
1 65828U 25221F   25289.16670139 -.01597682  00000+0 -19616-1 0  9993
2 65828  53.1596  42.7655 0000843  72.1796 242.7689 15.62844847  3949
STARLINK-35244          
1 65829U 25221G   25289.16670139 -.01699134  00000+0 -31820-1 0  9990
2 65829  53.1600  43.5101 0001004  74.5497 236.8075 15.51324655  3902
STARLINK-35368          
1 65830U 25221H   25289.16670139 -.01604527  00000+0 -19708-1 0  9995
2 65830  53.1596  42.7527 0000787  74.6955 246.0012 15.62850017  3900
STARLINK-35337          
1 65831U 25221J   25289.16670139 -.01600549  00000+0 -19655-1 0  9997
2 65831  53.1597  42.7616 0000830  70.3652 246.5000 15.62846502  3947
STARLINK-35277          
1 65832U 25221K   25289.16670139 -.01600605  00000+0 -19655-1 0  9991
2 65832  53.1598  42.7575 0000816  68.3732 250.4075 15.62847291  3945
STARLINK-35345          
1 65833U 25221L   25289.16670139 -.01598604  00000+0 -19629-1 0  9998
2 65833  53.1598  42.7486 0000812  67.7160 254.8997 15.62845249  3943
STARLINK-35320          
1 65834U 25221M   25289.16670139 -.01602786  00000+0 -19685-1 0  9998
2 65834  53.1596  42.7411 0000838  67.8192 258.6296 15.62848168  3941
STARLINK-35349          
1 65835U 25221N   25289.16670139 -.01601274  00000+0 -19664-1 0  9997
2 65835  53.1596  42.7438 0000806  69.2207 255.3093 15.62848487  3942
STARLINK-35356          
1 65836U 25221P   25289.16670139 -.01602069  00000+0 -19676-1 0  9994
2 65836  53.1597  42.7356 0000836  68.0485 260.3180 15.62847138  3946
STARLINK-35314          
1 65837U 25221Q   25289.16670139 -.01601994  00000+0 -19675-1 0  9990
2 65837  53.1596  42.7248 0000765  74.6022 259.5145 15.62847656  3943
STARLINK-35324          
1 65838U 25221R   25289.16670139 -.01600124  00000+0 -19649-1 0  9996
2 65838  53.1597  42.7287 0000814  70.0050 262.1935 15.62847082  3944
STARLINK-35102          
1 65839U 25221S   25289.16670139 -.01599833  00000+0 -19646-1 0  9998
2 65839  53.1594  42.7201 0000840  68.6612 267.3725 15.62845882  3944
STARLINK-35364          
1 65840U 25221T   25289.16670139 -.01601533  00000+0 -19668-1 0  9995
2 65840  53.1595  42.7163 0000825  66.0589 271.8914 15.62846863  3942
STARLINK-35238          
1 65841U 25221U   25289.16670139 -.01598305  00000+0 -19624-1 0  9990
2 65841  53.1596  42.7081 0000838  67.8344 273.9485 15.62845768  3944
STARLINK-35298          
1 65842U 25221V   25289.16670139 -.01599342  00000+0 -19639-1 0  9999
2 65842  53.1596  42.7124 0000800  76.8806 262.9871 15.62846016  3949
STARLINK-35301          
1 65843U 25221W   25289.16670139 -.01600274  00000+0 -19651-1 0  9991
2 65843  53.1596  42.6997 0000818  68.9305 276.6872 15.62846504  3947
STARLINK-35148          
1 65844U 25221X   25289.16670139 -.01601784  00000+0 -19672-1 0  9992
2 65844  53.1596  42.7033 0000816  68.8189 274.8817 15.62847450  3947
STARLINK-35302          
1 65845U 25221Y   25289.16670139 -.01597113  00000+0 -19609-1 0  9993
2 65845  53.1595  42.6960 0000826  68.9046 278.6296 15.62844825  3945
STARLINK-35290          
1 65846U 25221Z   25289.16670139 -.01604698  00000+0 -19710-1 0  9994
2 65846  53.1596  42.6888 0000835  72.6309 278.7362 15.62849816  3940
STARLINK-35262          
1 65847U 25221AA  25289.16670139 -.01598173  00000+0 -19624-1 0  9999
2 65847  53.1593  42.6793 0000850  71.9124 283.2916 15.62844090  3942
STARLINK-35308          
1 65848U 25221AB  25289.16670139 -.01601053  00000+0 -19662-1 0  9994
2 65848  53.1595  42.6916 0000792  71.3522 278.1001 15.62846544  3947
STARLINK-35231          
1 65849U 25221AC  25289.16670139 -.01596093  00000+0 -19595-1 0  9997
2 65849  53.1595  42.6834 0000883  72.1896 281.0966 15.62843429  3943
STARLINK-35252          
1 65850U 25221AD  25289.16670139 -.01599737  00000+0 -19644-1 0  9992
2 65850  53.1594  42.6766 0000836  72.5298 284.5894 15.62846157  3945
SHIYAN-30 01            
1 65851U 25222A   25289.15815434  .00003814  00000+0  36344-3 0  9993
2 65851  34.9886 286.4248 0004718 117.5214 242.5971 14.92882867  2557
SHIYAN-30 02            
1 65852U 25222B   25289.15747531  .00003700  00000+0  35264-3 0  9990
2 65852  34.9971 286.4239 0005989 120.2243 239.9055 14.92885704  2531
CZ-2D R/B               
1 65853U 25222C   25288.68768303  .00002761  00000+0  21707-3 0  9991
2 65853  34.9026 288.0532 0055327 116.8226 243.8152 14.99254468  2491
STARLINK-35208          
1 65854U 25223A   25289.11637039 -.00566461  00000+0 -37564-2 0  9994
2 65854  53.1513 250.4890 0001508 351.7118   8.3877 15.76341862  2004
STARLINK-35200          
1 65855U 25223B   25289.17945662 -.00710958  00000+0 -48608-2 0  9998
2 65855  53.1513 250.1723 0000747  80.8953 279.2152 15.76044827  2015
STARLINK-35459          
1 65856U 25223C   25289.17909205 -.00559268  00000+0 -37485-2 0  9998
2 65856  53.1509 250.1688 0000990 140.3598 219.7495 15.76084873  2012
STARLINK-35489          
1 65857U 25223D   25289.11530975 -.00542941  00000+0 -36097-2 0  9995
2 65857  53.1509 250.4811 0001995   9.3213 350.7844 15.76217739  2000
STARLINK-35199          
1 65858U 25223E   25289.17836214 -.00567744  00000+0 -38358-2 0  9997
2 65858  53.1508 250.1636 0000475  96.7571 263.3503 15.75930151  2012
STARLINK-35408          
1 65859U 25223F   25289.17765986 -.00536665  00000+0 -36214-2 0  9992
2 65859  53.1509 250.1584 0000843 356.0258   4.0756 15.75872265  2010
STARLINK-35303          
1 65860U 25223G   25289.11385900 -.00577498  00000+0 -38961-2 0  9992
2 65860  53.1511 250.4722 0002039 354.3409   5.7588 15.75979057  2007
STARLINK-35258          
1 65861U 25223H   25289.16670139 -.01507842  00000+0 -11037-1 0  9990
2 65861  53.1530 250.2175 0001055 115.3233 180.5762 15.75550596  3242
STARLINK-35386          
1 65862U 25223J   25289.16670139 -.01213506  00000+0 -89738-2 0  9996
2 65862  53.1526 250.2006 0001157  90.3454 213.6226 15.75150806  3244
STARLINK-35469          
1 65863U 25223K   25289.16670139 -.01336362  00000+0 -97522-2 0  9993
2 65863  53.1528 250.2048 0001182  97.6228 204.3329 15.75263890  3249
STARLINK-35471          
1 65864U 25223L   25289.16670139 -.01132520  00000+0 -83465-2 0  9995
2 65864  53.1530 250.1965 0001285 114.5546 191.4307 15.75030984  3244
STARLINK-35475          
1 65865U 25223M   25289.16670139 -.00937473  00000+0 -69352-2 0  9994
2 65865  53.1527 250.1917 0001084 100.0612 207.9503 15.74875970  3241
STARLINK-35312          
1 65866U 25223N   25289.16670139 -.00818129  00000+0 -60065-2 0  9993
2 65866  53.1527 250.1871 0001499 122.2365 187.8018 15.74713657  3242
STARLINK-35456          
1 65867U 25223P   25289.16670139 -.00791090  00000+0 -58006-2 0  9993
2 65867  53.1522 250.1837 0001476 100.8369 211.1495 15.74668525  3244
STARLINK-35450          
1 65868U 25223Q   25289.16670139 -.00601844  00000+0 -43311-2 0  9994
2 65868  53.1528 250.1796 0001311 115.0293 198.9212 15.74580877  3249
STARLINK-35441          
1 65869U 25223R   25289.16670139 -.00435033  00000+0 -30872-2 0  9998
2 65869  53.1524 250.1749 0001046  98.4708 217.4733 15.74445811  3247
STARLINK-35433          
1 65870U 25223S   25289.16670139 -.00282520  00000+0 -19762-2 0  9996
2 65870  53.1525 250.1713 0000819 112.2525 205.6531 15.74349518  3242
